[{"OBJECT_NAME":"ONEWEB-0035","OBJECT_ID":"2020-008N","EPOCH":"2026-02-05T01:28:28.803072","MEAN_MOTION":13.10372386,"ECCENTRICITY":0.00018232,"INCLINATION":87.875,"RA_OF_ASC_NODE":62.6107,"ARG_OF_PERICENTER":96.8863,"MEAN_ANOMALY":263.2472,"EPHEMERIS_TYPE":0,"CLASSIFICATION_TYPE":"U","NORAD_CAT_ID":45143,"ELEMENT_SET_NO":999,"REV_AT_EPOCH":29063,"BSTAR":0.0020336924,"MEAN_MOTION_DOT":7.23e-6,"MEAN_MOTION_DDOT":0},{"OBJECT_NAME":"ONEWEB-0036","OBJECT_ID":"2020-008P","EPOCH":"2026-02-05T01:14:07.967904","MEAN_MOTION":13.10373794,"ECCENTRICITY":0.0002,"INCLINATION":87.876,"RA_OF_ASC_NODE":62.5761,"ARG_OF_PERICENTER":85.1744,"MEAN_ANOMALY":274.9612,"EPHEMERIS_TYPE":0,"CLASSIFICATION_TYPE":"U","NORAD_CAT_ID":45144,"ELEMENT_SET_NO":999,"REV_AT_EPOCH":29106,"BSTAR":0.0016545056,"MEAN_MOTION_DOT":5.9e-6,"MEAN_MOTION_DDOT":0},{"OBJECT_NAME":"ONEWEB-0038","OBJECT_ID":"2020-008Q","EPOCH":"2026-02-05T00:32:56.660928","MEAN_MOTION":13.11415558,"ECCENTRICITY":1.236e-5,"INCLINATION":87.8821,"RA_OF_ASC_NODE":47.3615,"ARG_OF_PERICENTER":89.3517,"MEAN_ANOMALY":270.7625,"EPHEMERIS_TYPE":0,"CLASSIFICATION_TYPE":"U","NORAD_CAT_ID":45145,"ELEMENT_SET_NO":999,"REV_AT_EPOCH":29300,"BSTAR":0.0012721793,"MEAN_MOTION_DOT":4.64e-6,"MEAN_MOTION_DDOT":0},{"OBJECT_NAME":"ONEWEB-0039","OBJECT_ID":"2020-008R","EPOCH":"2026-02-05T08:08:49.707744","MEAN_MOTION":13.10376812,"ECCENTRICITY":0.00018254,"INCLINATION":87.8766,"RA_OF_ASC_NODE":62.5358,"ARG_OF_PERICENTER":76.7356,"MEAN_ANOMALY":283.3975,"EPHEMERIS_TYPE":0,"CLASSIFICATION_TYPE":"U","NORAD_CAT_ID":45146,"ELEMENT_SET_NO":999,"REV_AT_EPOCH":29089,"BSTAR":-0.00074441034,"MEAN_MOTION_DOT":-2.47e-6,"MEAN_MOTION_DDOT":0},{"OBJECT_NAME":"ONEWEB-0040","OBJECT_ID":"2020-008S","EPOCH":"2026-02-05T00:39:26.975520","MEAN_MOTION":13.10374772,"ECCENTRICITY":0.00017566,"INCLINATION":87.8754,"RA_OF_ASC_NODE":62.6182,"ARG_OF_PERICENTER":93.6096,"MEAN_ANOMALY":266.5232,"EPHEMERIS_TYPE":0,"CLASSIFICATION_TYPE":"U","NORAD_CAT_ID":45147,"ELEMENT_SET_NO":999,"REV_AT_EPOCH":29055,"BSTAR":-0.0014777335,"MEAN_MOTION_DOT":-5.03e-6,"MEAN_MOTION_DDOT":0},{"OBJECT_NAME":"ONEWEB-0043","OBJECT_ID":"2020-008U","EPOCH":"2026-02-05T00:41:50.529120","MEAN_MOTION":13.10375646,"ECCENTRICITY":0.00018908,"INCLINATION":87.8756,"RA_OF_ASC_NODE":62.5999,"ARG_OF_PERICENTER":75.4882,"MEAN_ANOMALY":284.6455,"EPHEMERIS_TYPE":0,"CLASSIFICATION_TYPE":"U","NORAD_CAT_ID":45149,"ELEMENT_SET_NO":999,"REV_AT_EPOCH":29087,"BSTAR":-0.0010548273,"MEAN_MOTION_DOT":-3.56e-6,"MEAN_MOTION_DDOT":0},{"OBJECT_NAME":"ONEWEB-0044","OBJECT_ID":"2020-008V","EPOCH":"2026-02-05T01:22:30.353664","MEAN_MOTION":13.10376776,"ECCENTRICITY":0.00017457,"INCLINATION":87.876,"RA_OF_ASC_NODE":62.588,"ARG_OF_PERICENTER":88.1085,"MEAN_ANOMALY":272.0243,"EPHEMERIS_TYPE":0,"CLASSIFICATION_TYPE":"U","NORAD_CAT_ID":45150,"ELEMENT_SET_NO":999,"REV_AT_EPOCH":29117,"BSTAR":0.002168647,"MEAN_MOTION_DOT":7.7e-6,"MEAN_MOTION_DDOT":0},{"OBJECT_NAME":"ONEWEB-0045","OBJECT_ID":"2020-008W","EPOCH":"2026-02-05T07:44:54.170880","MEAN_MOTION":13.11418326,"ECCENTRICITY":0.0001761,"INCLINATION":87.8825,"RA_OF_ASC_NODE":47.2879,"ARG_OF_PERICENTER":87.1632,"MEAN_ANOMALY":272.9698,"EPHEMERIS_TYPE":0,"CLASSIFICATION_TYPE":"U","NORAD_CAT_ID":45151,"ELEMENT_SET_NO":999,"REV_AT_EPOCH":29312,"BSTAR":0.0017211881,"MEAN_MOTION_DOT":6.23e-6,"MEAN_MOTION_DDOT":0},{"OBJECT_NAME":"ONEWEB-0047","OBJECT_ID":"2020-008X","EPOCH":"2026-02-05T01:12:57.349728","MEAN_MOTION":13.10378654,"ECCENTRICITY":0.00020784,"INCLINATION":87.8745,"RA_OF_ASC_NODE":62.5948,"ARG_OF_PERICENTER":99.7863,"MEAN_ANOMALY":260.3499,"EPHEMERIS_TYPE":0,"CLASSIFICATION_TYPE":"U","NORAD_CAT_ID":45152,"ELEMENT_SET_NO":999,"REV_AT_EPOCH":29089,"BSTAR":-0.00013998247,"MEAN_MOTION_DOT":-3.6e-7,"MEAN_MOTION_DDOT":0},{"OBJECT_NAME":"ONEWEB-0048","OBJECT_ID":"2020-008Y","EPOCH":"2026-02-05T01:05:45.668544","MEAN_MOTION":13.10376857,"ECCENTRICITY":0.00018072,"INCLINATION":87.8753,"RA_OF_ASC_NODE":62.6234,"ARG_OF_PERICENTER":95.4899,"MEAN_ANOMALY":264.6435,"EPHEMERIS_TYPE":0,"CLASSIFICATION_TYPE":"U","NORAD_CAT_ID":45153,"ELEMENT_SET_NO":999,"REV_AT_EPOCH":29050,"BSTAR":0.0012192448,"MEAN_MOTION_DOT":4.38e-6,"MEAN_MOTION_DDOT":0},{"OBJECT_NAME":"ONEWEB-0049","OBJECT_ID":"2020-008Z","EPOCH":"2026-02-05T01:10:21.635328","MEAN_MOTION":13.1037515,"ECCENTRICITY":0.00023057,"INCLINATION":87.8749,"RA_OF_ASC_NODE":62.611,"ARG_OF_PERICENTER":88.4519,"MEAN_ANOMALY":271.6873,"EPHEMERIS_TYPE":0,"CLASSIFICATION_TYPE":"U","NORAD_CAT_ID":45154,"ELEMENT_SET_NO":999,"REV_AT_EPOCH":29072,"BSTAR":0.0015989856,"MEAN_MOTION_DOT":5.71e-6,"MEAN_MOTION_DDOT":0},{"OBJECT_NAME":"ONEWEB-0051","OBJECT_ID":"2020-008AA","EPOCH":"2026-02-04T22:33:06.928128","MEAN_MOTION":13.11416145,"ECCENTRICITY":0.00018545,"INCLINATION":87.882,"RA_OF_ASC_NODE":47.3792,"ARG_OF_PERICENTER":95.1309,"MEAN_ANOMALY":265.003,"EPHEMERIS_TYPE":0,"CLASSIFICATION_TYPE":"U","NORAD_CAT_ID":45155,"ELEMENT_SET_NO":999,"REV_AT_EPOCH":29375,"BSTAR":0.0014343947,"MEAN_MOTION_DOT":5.21e-6,"MEAN_MOTION_DDOT":0},{"OBJECT_NAME":"ONEWEB-0052","OBJECT_ID":"2020-008AB","EPOCH":"2026-02-05T01:02:10.954176","MEAN_MOTION":13.10375568,"ECCENTRICITY":0.00023149,"INCLINATION":87.8763,"RA_OF_ASC_NODE":62.5779,"ARG_OF_PERICENTER":86.6093,"MEAN_ANOMALY":273.5299,"EPHEMERIS_TYPE":0,"CLASSIFICATION_TYPE":"U","NORAD_CAT_ID":45156,"ELEMENT_SET_NO":999,"REV_AT_EPOCH":29063,"BSTAR":0.00099202774,"MEAN_MOTION_DOT":3.59e-6,"MEAN_MOTION_DDOT":0},{"OBJECT_NAME":"ONEWEB-0053","OBJECT_ID":"2020-008AC","EPOCH":"2026-02-05T00:37:03.090144","MEAN_MOTION":13.10375205,"ECCENTRICITY":0.00020023,"INCLINATION":87.8752,"RA_OF_ASC_NODE":62.624,"ARG_OF_PERICENTER":79.712,"MEAN_ANOMALY":280.4233,"EPHEMERIS_TYPE":0,"CLASSIFICATION_TYPE":"U","NORAD_CAT_ID":45157,"ELEMENT_SET_NO":999,"REV_AT_EPOCH":29060,"BSTAR":-0.00216821,"MEAN_MOTION_DOT":-7.44e-6,"MEAN_MOTION_DDOT":0},{"OBJECT_NAME":"ONEWEB-0054","OBJECT_ID":"2020-008AD","EPOCH":"2026-02-05T01:27:16.430976","MEAN_MOTION":13.10371917,"ECCENTRICITY":0.00019397,"INCLINATION":87.8759,"RA_OF_ASC_NODE":62.5894,"ARG_OF_PERICENTER":92.5053,"MEAN_ANOMALY":267.6296,"EPHEMERIS_TYPE":0,"CLASSIFICATION_TYPE":"U","NORAD_CAT_ID":45158,"ELEMENT_SET_NO":999,"REV_AT_EPOCH":29072,"BSTAR":0.0022330248,"MEAN_MOTION_DOT":7.92e-6,"MEAN_MOTION_DDOT":0},{"OBJECT_NAME":"ONEWEB-0056","OBJECT_ID":"2020-008AE","EPOCH":"2026-02-05T00:59:47.198400","MEAN_MOTION":13.10375753,"ECCENTRICITY":0.0002033,"INCLINATION":87.8761,"RA_OF_ASC_NODE":62.5935,"ARG_OF_PERICENTER":94.2247,"MEAN_ANOMALY":265.9113,"EPHEMERIS_TYPE":0,"CLASSIFICATION_TYPE":"U","NORAD_CAT_ID":45159,"ELEMENT_SET_NO":999,"REV_AT_EPOCH":29087,"BSTAR":0.00072228921,"MEAN_MOTION_DOT":2.65e-6,"MEAN_MOTION_DDOT":0},{"OBJECT_NAME":"ONEWEB-0057","OBJECT_ID":"2020-008AF","EPOCH":"2026-02-05T01:10:44.730912","MEAN_MOTION":13.10376244,"ECCENTRICITY":0.00019863,"INCLINATION":87.8756,"RA_OF_ASC_NODE":62.6031,"ARG_OF_PERICENTER":87.0147,"MEAN_ANOMALY":273.1207,"EPHEMERIS_TYPE":0,"CLASSIFICATION_TYPE":"U","NORAD_CAT_ID":45160,"ELEMENT_SET_NO":999,"REV_AT_EPOCH":29104,"BSTAR":0.0019220869,"MEAN_MOTION_DOT":6.84e-6,"MEAN_MOTION_DDOT":0}]
