ONEWEB-0035             
1 45143U 20008N   26036.06144448  .00000723  00000+0  20337-2 0  9993
2 45143  87.8750  62.6107 0001823  96.8863 263.2472 13.10372386290630
ONEWEB-0036             
1 45144U 20008P   26036.05148111  .00000590  00000+0  16545-2 0  9992
2 45144  87.8760  62.5761 0002000  85.1744 274.9612 13.10373794291061
ONEWEB-0038             
1 45145U 20008Q   26036.02287802  .00000464  00000+0  12722-2 0  9994
2 45145  87.8821  47.3615 0000123  89.3517 270.7625 13.11415558293007
ONEWEB-0039             
1 45146U 20008R   26036.33946421 -.00000247  00000+0 -74441-3 0  9996
2 45146  87.8766  62.5358 0001825  76.7356 283.3975 13.10376812290890
ONEWEB-0040             
1 45147U 20008S   26036.02739555 -.00000503  00000+0 -14777-2 0  9991
2 45147  87.8754  62.6182 0001756  93.6096 266.5232 13.10374772290551
ONEWEB-0043             
1 45149U 20008U   26036.02905705 -.00000356  00000+0 -10548-2 0  9993
2 45149  87.8756  62.5999 0001890  75.4882 284.6455 13.10375646290874
ONEWEB-0044             
1 45150U 20008V   26036.05729576  .00000770  00000+0  21686-2 0  9991
2 45150  87.8760  62.5880 0001745  88.1085 272.0243 13.10376776291170
ONEWEB-0045             
1 45151U 20008W   26036.32284920  .00000623  00000+0  17212-2 0  9998
2 45151  87.8825  47.2879 0001761  87.1632 272.9698 13.11418326293125
ONEWEB-0047             
1 45152U 20008X   26036.05066377 -.00000036  00000+0 -13998-3 0  9991
2 45152  87.8745  62.5948 0002078  99.7863 260.3499 13.10378654290890
ONEWEB-0048             
1 45153U 20008Y   26036.04566746  .00000438  00000+0  12192-2 0  9994
2 45153  87.8753  62.6234 0001807  95.4899 264.6435 13.10376857290508
ONEWEB-0049             
1 45154U 20008Z   26036.04886152  .00000571  00000+0  15990-2 0  9998
2 45154  87.8749  62.6110 0002305  88.4519 271.6873 13.10375150290725
ONEWEB-0051             
1 45155U 20008AA  26035.93966352  .00000521  00000+0  14344-2 0  9994
2 45155  87.8820  47.3792 0001854  95.1309 265.0030 13.11416145293751
ONEWEB-0052             
1 45156U 20008AB  26036.04318234  .00000359  00000+0  99203-3 0  9995
2 45156  87.8763  62.5779 0002314  86.6093 273.5299 13.10375568290636
ONEWEB-0053             
1 45157U 20008AC  26036.02573021 -.00000744  00000+0 -21682-2 0  9996
2 45157  87.8752  62.6240 0002002  79.7120 280.4233 13.10375205290607
ONEWEB-0054             
1 45158U 20008AD  26036.06060684  .00000792  00000+0  22330-2 0  9999
2 45158  87.8759  62.5894 0001939  92.5053 267.6296 13.10371917290720
ONEWEB-0056             
1 45159U 20008AE  26036.04151850  .00000265  00000+0  72229-3 0  9992
2 45159  87.8761  62.5935 0002033  94.2247 265.9113 13.10375753290877
ONEWEB-0057             
1 45160U 20008AF  26036.04912883  .00000684  00000+0  19221-2 0  9992
2 45160  87.8756  62.6031 0001986  87.0147 273.1207 13.10376244291047
